ONEWEB-0551             
1 56053U 23043H   24010.72957865 -.00000014  00000+0 -72071-4 0  9994
2 56053  87.8987  76.0908 0002045 105.8204 254.3152 13.15549079 40492
ONEWEB-0552             
1 56054U 23043J   24010.69737244  .00000087  00000+0  17968-3 0  9999
2 56054  87.9219  60.8698 0001969 114.4288 245.7051 13.21826507 41765
ONEWEB-0553             
1 56055U 23043K   24010.16951453  .00000128  00000+0  30146-3 0  9991
2 56055  87.9043  45.7209 0001760  76.9943 283.1384 13.16591482 41995
ONEWEB-0554             
1 56056U 23043L   24010.46081713 -.00000042  00000+0 -14272-3 0  9997
2 56056  87.9046  45.6807 0001435 121.0705 239.0567 13.16593233 42012
ONEWEB-0555             
1 56057U 23043M   24010.11881538 -.00000395  00000+0 -10665-2 0  9995
2 56057  87.9042  45.7239 0001391  74.1861 285.9423 13.16595163 41970
ONEWEB-0557             
1 56058U 23043N   24011.12102816 -.00000140  00000+0 -40072-3 0  9997
2 56058  87.9041  45.5507 0000819  72.8535 287.2686 13.16593824 43018
ONEWEB-0558             
1 56059U 23043P   24010.69106488  .00000110  00000+0  23474-3 0  9990
2 56059  87.9220  60.8494 0002354  98.8736 261.2665 13.21826858 41772
ONEWEB-0559             
1 56060U 23043Q   24010.68002523  .00000078  00000+0  15618-3 0  9990
2 56060  87.9219  60.8517 0002067 114.9235 245.2114 13.21824041 41787
ONEWEB-0566             
1 56061U 23043R   24010.67372349 -.00000858  00000+0 -21082-2 0  9995
2 56061  87.9220  60.8539 0002556 109.6751 250.4659 13.21829385 41767
ONEWEB-0568             
1 56062U 23043S   24010.60649203  .00000533  00000+0  13604-2 0  9994
2 56062  87.9044  45.6179 0001889  79.1171 281.0173 13.16590572 42969
ONEWEB-0574             
1 56063U 23043T   24010.21323790  .00000099  00000+0  20740-3 0  9999
2 56063  87.9218  60.9435 0001993  97.3790 262.7571 13.21826129 41742
ONEWEB-0575             
1 56064U 23043U   24010.14416277  .00000063  00000+0  13035-3 0  9995
2 56064  87.9042  45.7162 0001211 103.5005 256.6261 13.16591876 41984
ONEWEB-0576             
1 56065U 23043V   24010.65712918 -.00000330  00000+0 -89644-3 0  9991
2 56065  87.9042  45.6149 0001527  82.1865 277.9439 13.16593697 42959
ONEWEB-0577             
1 56066U 23043W   24011.11942816 -.00009587  00000+0 -25121-1 0  9997
2 56066  87.9041  45.5208 0001221 107.5922 252.5342 13.16642027 43046
ONEWEB-0578             
1 56067U 23043X   24010.65479617  .00000035  00000+0  52104-4 0  9991
2 56067  87.9216  60.8489 0001796  93.8589 266.2750 13.21824274 41769
ONEWEB-0579             
1 56068U 23043Y   24010.64533699  .00000121  00000+0  26228-3 0  9995
2 56068  87.9218  60.8528 0002113 110.4771 249.6590 13.21825017 41773
ONEWEB-0581             
1 56069U 23043Z   24010.59379939 -.00000007  00000+0 -51989-4 0  9993
2 56069  87.9040  45.6557 0001438 113.9699 246.1582 13.16592479 42946
ONEWEB-0609             
1 56070U 23043AA  24010.68204528 -.00000008  00000+0 -54960-4 0  9999
2 56070  87.8983  76.0859 0001912 100.5325 259.6020 13.15546882 40525
ONEWEB-0613             
1 56071U 23043AB  24010.67729244  .00000174  00000+0  42862-3 0  9995
2 56071  87.8987  76.0761 0001856 103.6354 256.4983 13.15546091 40520
ONEWEB-0630             
1 56072U 23043AC  24011.12888666 -.00000033  00000+0 -12199-3 0  9997
2 56072  87.8983  75.9826 0002240 104.6055 255.5323 13.15552664 40570
ONEWEB-0632             
1 56073U 23043AD  24010.66778435 -.00000096  00000+0 -28847-3 0  9994
2 56073  87.8985  76.0931 0001669 114.8945 245.2359 13.15548719 40512
ONEWEB-0633             
1 56074U 23043AE  24010.20509719 -.00000026  00000+0 -10226-3 0  9997
2 56074  87.8983  76.1729 0002497 105.8128 254.3277 13.15549350 39521
ONEWEB-0634             
1 56075U 23043AF  24010.19084471  .00000047  00000+0  90407-4 0  9990
2 56075  87.8991  76.1764 0001990  86.9386 273.1972 13.15548473 40429
ONEWEB-0635             
1 56076U 23043AG  24010.71849297  .00000088  00000+0  20080-3 0  9998
2 56076  87.8986  76.1305 0001618 118.0376 242.0918 13.15546819 40526
ONEWEB-0636             
1 56077U 23043AH  24010.63450741  .00000135  00000+0  32550-3 0  9990
2 56077  87.8984  76.1163 0001512 114.0057 246.1232 13.15549212 40492
ONEWEB-0637             
1 56078U 23043AJ  24010.24788151  .00000174  00000+0  42817-3 0  9997
2 56078  87.8987  76.1673 0001461 115.4937 244.6345 13.15546529 39558
ONEWEB-0647             
1 56079U 23043AK  24010.24313345  .00000230  00000+0  57591-3 0  9995
2 56079  87.8986  76.1905 0001700 113.9196 246.2112 13.15549911 39549
ONEWEB-0651             
1 56080U 23043AL  24011.15105801  .00000180  00000+0  44293-3 0  9993
2 56080  87.8988  75.9814 0001408 112.1501 247.9779 13.15548946 39662
ONEWEB-0718             
1 56081U 23043AM  24010.68997608  .00000033  00000+0  53565-4 0  9995
2 56081  87.8988  76.0611 0002111  87.5602 272.5770 13.15547377 40528
GSLV R/B                
1 56082U 23043AN  24010.52991252  .00051060  00000+0  71258-3 0  9992
2 56082  87.4070  38.8941 0015582 342.0190  18.0520 15.56550150 44841
ONEWEB-0561             
1 56710U 23068A   24011.16378889  .00000109  00000+0  19217-3 0  9998
2 56710  88.2913  88.2119 0002291 121.1254 239.0112 13.34322418 32881
ONEWEB-0668             
1 56711U 23068B   24011.25001157 -.00419556  00000+0 -31117+0 0  9991
2 56711  87.3447  46.8440 0014439 122.4096 113.3051 13.97766585 35476
ONEWEB-0676             
1 56712U 23068C   24010.91667824 -.00922312  00000+0 -83326+0 0  9991
2 56712  87.2807  46.9013 0016949 120.2307 206.9621 13.86788553 35381
ONEWEB-0677             
1 56713U 23068D   24011.12713093  .00000097  00000+0  16697-3 0  9992
2 56713  88.3245  86.3969 0001333 114.6915 245.4365 13.34771586 33068
ONEWEB-0678             
1 56714U 23068E   24010.73433308 -.00000099  00000+0 -29789-3 0  9997
2 56714  87.8990  76.0139 0002020 101.5352 258.6006 13.15547702 33179
ONEWEB-0679             
1 56715U 23068F   24011.25001157 -.01006757  00000+0 -89143+0 0  9993
2 56715  87.2793  46.8337 0015740 121.8605 326.6766 13.88249657 35459
ONEWEB-0680             
1 56716U 23068G   24010.63352912  .00000049  00000+0  86572-4 0  9996
2 56716  87.9224  60.8907 0001892  73.3114 286.8228 13.21823691 34412
ONEWEB-0681             
1 56717U 23068H   24010.20456726  .00000015  00000+0  49884-5 0  9997
2 56717  87.9220  60.9644 0001127 140.0619 220.0598 13.21824649 33649
ONEWEB-0682             
1 56718U 23068J   24010.24075577  .00000195  00000+0  48426-3 0  9991
2 56718  87.8986  76.1648 0001490  86.4689 273.6611 13.15546211 32574
ONEWEB-0683             
1 56719U 23068K   24010.25027364  .00000204  00000+0  50660-3 0  9998
2 56719  87.8986  76.1307 0001604  92.4513 267.6801 13.15549993 32548
ONEWEB-0684             
1 56720U 23068L   24010.25739077  .00000113  00000+0  26562-3 0  9994
2 56720  87.8988  76.2045 0002349  97.6258 262.5139 13.15546506 32378
ONEWEB-0686             
1 56721U 23068M   24010.91667824 -.00878577  00000+0 -76341+0 0  9993
2 56721  87.2917  46.9046 0014891 123.0364 208.1434 13.89440028 35399
ONEWEB-0694             
1 56722U 23068N   24011.25001157 -.01167608  00000+0 -93893+0 0  9991
2 56722  87.3146  46.8265 0015354 121.1074 195.6281 13.93771353 35471
ONEWEB-0696             
1 56723U 23068P   24010.67017271 -.00000133  00000+0 -38618-3 0  9997
2 56723  87.8987  76.0959 0002013 114.6986 245.4354 13.15548967 33247
ONEWEB-0703             
1 56724U 23068Q   24010.22410315  .00000071  00000+0  15413-3 0  9992
2 56724  87.8985  76.2072 0002465 134.9975 225.1356 13.15549407 32378
ONEWEB-0721             
1 56725U 23068R   24011.11810000  .00002530  00000+0  30078-3 0  9993
2 56725  86.6750  42.1054 0013235 108.7352 251.5310 14.83960916 35759
